NORAD_CAT_ID,OBJECT_NAME,OBJECT_TYPE,EPOCH,MEAN_MOTION,ECCENTRICITY,INCLINATION,RA_OF_ASC_NODE,ARG_OF_PERICENTER,MEAN_ANOMALY,BSTAR,MEAN_MOTION_DOT,MEAN_MOTION_DDOT,TLE_LINE0,TLE_LINE1,TLE_LINE2,SEMIMAJOR_AXIS,PERIOD,APOGEE,PERIGEE,DECAYED
55773.0,STARLINK-5833,PAYLOAD,2023-08-08 08:53:38,14.98344793,0.0003172,69.9993,85.4023,270.582,89.4976,-0.00012671,-1.605e-05,0.0,0 STARLINK-5833,1 55773U 23028AJ  23220.37058488 -.00001605  00000-0 -12671-3 0  9998,2 55773  69.9993  85.4023 0003172 270.5820  89.4976 14.98344793 25083,6950.147,96.106,574.217,569.808,0.0
55773.0,STARLINK-5833,PAYLOAD,2023-08-09 15:20:12,14.98328403,0.0003011,69.9993,82.2038,270.8236,89.2578,-8.2947e-06,-1.92e-06,0.0,0 STARLINK-5833,1 55773U 23028AJ  23221.63903101 -.00000192  00000-0 -82947-5 0  9994,2 55773  69.9993  82.2038 0003011 270.8236  89.2578 14.98328403 25277,6950.198,96.107,574.156,569.97,0.0
55773.0,STARLINK-5833,PAYLOAD,2023-08-10 18:34:28,14.98342649,0.0002595,69.9992,79.3427,271.165,88.9212,-0.00019899,-2.467e-05,0.0,0 STARLINK-5833,1 55773U 23028AJ  23222.77394469 -.00002467  00000-0 -19899-3 0  9992,2 55773  69.9992  79.3427 0002595 271.1650  88.9212 14.98342649 25443,6950.154,96.106,573.822,570.215,0.0
55773.0,STARLINK-5833,PAYLOAD,2023-08-11 00:59:00,14.98359161,0.0003007,69.9991,78.6691,266.6124,93.4691,-0.0003909,-4.758e-05,0.0,0 STARLINK-5833,1 55773U 23028AJ  23223.04097831 -.00004758  00000-0 -39090-3 0  9996,2 55773  69.9991  78.6691 0003007 266.6124  93.4691 14.98359161 25484,6950.103,96.105,574.058,569.878,0.0
55773.0,STARLINK-5833,PAYLOAD,2023-08-11 07:23:32,14.98348512,0.0003028,69.9989,77.995,270.0872,89.994,-0.00029548,-3.619e-05,0.0,0 STARLINK-5833,1 55773U 23028AJ  23223.30801917 -.00003619  00000-0 -29548-3 0  9995,2 55773  69.9989  77.9950 0003028 270.0872  89.9940 14.98348512 25523,6950.136,96.106,574.105,569.896,0.0
55773.0,STARLINK-5833,PAYLOAD,2023-08-11 18:36:29,14.98329024,0.0003003,69.9991,76.8171,268.781,91.3005,-2.1067e-05,-3.44e-06,0.0,0 STARLINK-5833,1 55773U 23028AJ  23223.77534455 -.00000344  00000-0 -21067-4 0  9997,2 55773  69.9991  76.8171 0003003 268.7810  91.3005 14.98329024 25591,6950.196,96.107,574.148,569.974,0.0
55773.0,STARLINK-5833,PAYLOAD,2023-08-12 23:26:54,14.98330212,0.0002986,69.9993,73.7871,266.788,93.2937,-4.5614e-06,-1.47e-06,0.0,0 STARLINK-5833,1 55773U 23028AJ  23224.97702289 -.00000147  00000-0 -45614-5 0  9998,2 55773  69.9993  73.7871 0002986 266.7880  93.2937 14.98330212 25776,6950.192,96.107,574.133,569.982,0.0
55773.0,STARLINK-5833,PAYLOAD,2023-08-13 23:28:55,14.98328341,0.0003052,69.9994,71.2626,269.1397,90.9412,-3.0644e-07,-9.7e-07,0.0,0 STARLINK-5833,1 55773U 23028AJ  23225.97842439 -.00000097  00000-0 -30644-6 0  9993,2 55773  69.9994  71.2626 0003052 269.1397  90.9412 14.98328341 25922,6950.198,96.107,574.184,569.942,0.0
55773.0,STARLINK-5833,PAYLOAD,2023-08-15 01:07:04,14.98333657,0.0003078,69.9993,68.5691,270.1095,89.9711,5.5379e-05,5.68e-06,0.0,0 STARLINK-5833,1 55773U 23028AJ  23227.04657889  .00000568  00000-0  55379-4 0  9997,2 55773  69.9993  68.5691 0003078 270.1095  89.9711 14.98333657 26081,6950.182,96.107,574.186,569.907,0.0
55773.0,STARLINK-5833,PAYLOAD,2023-08-16 05:57:29,14.98331995,0.0003003,69.9996,65.5389,269.2227,90.8588,2.4314e-05,1.97e-06,0.0,0 STARLINK-5833,1 55773U 23028AJ  23228.24825911  .00000197  00000-0  24314-4 0  9996,2 55773  69.9996  65.5389 0003003 269.2227  90.8588 14.98331995 26265,6950.187,96.107,574.139,569.965,0.0
55773.0,STARLINK-5833,PAYLOAD,2023-08-17 17:12:26,14.9833214,0.0003111,69.997,61.8353,273.3945,86.6858,-1.5964e-05,-2.84e-06,0.0,0 STARLINK-5833,1 55773U 23028AJ  23229.71697662 -.00000284  00000-0 -15964-4 0  9999,2 55773  69.9970  61.8353 0003111 273.3945  86.6858 14.98332140 26480,6950.186,96.107,574.213,569.889,0.0
55773.0,STARLINK-5833,PAYLOAD,2023-08-18 18:50:36,14.98327286,0.0002934,70.0024,59.1432,269.9889,90.0934,1.0158e-05,2.8e-07,0.0,0 STARLINK-5833,1 55773U 23028AJ  23230.78513924  .00000028  00000-0  10158-4 0  9990,2 55773  70.0024  59.1432 0002934 269.9889  90.0934 14.98327286 26648,6950.201,96.107,574.105,570.027,0.0
55773.0,STARLINK-5833,PAYLOAD,2023-08-19 22:04:53,14.98328816,0.0003,69.9998,56.2812,270.3828,89.6987,7.9909e-06,2e-08,0.0,0 STARLINK-5833,1 55773U 23028AJ  23231.92005977  .00000002  00000-0  79909-5 0  9993,2 55773  69.9998  56.2812 0003000 270.3828  89.6987 14.98328816 26810,6950.197,96.107,574.147,569.976,0.0
55773.0,STARLINK-5833,PAYLOAD,2023-08-20 22:06:53,14.9833119,0.000303,69.9999,53.7557,269.4397,90.6415,3.3773e-05,3.1e-06,0.0,0 STARLINK-5833,1 55773U 23028AJ  23232.92145753  .00000310  00000-0  33773-4 0  9991,2 55773  69.9999  53.7557 0003030 269.4397  90.6415 14.98331190 26965,6950.189,96.107,574.16,569.948,0.0
55773.0,STARLINK-5833,PAYLOAD,2023-08-21 23:45:02,14.98332501,0.0003029,70.0,51.0624,270.064,90.0172,2.9884e-05,2.64e-06,0.0,0 STARLINK-5833,1 55773U 23028AJ  23233.98961646  .00000264  00000-0  29884-4 0  9991,2 55773  70.0000  51.0624 0003029 270.0640  90.0172 14.98332501 27124,6950.185,96.107,574.155,569.945,0.0
55773.0,STARLINK-5833,PAYLOAD,2023-08-23 12:36:08,14.98329132,0.0002947,70.0003,47.191,270.3632,89.7189,-1.0679e-05,-2.2e-06,0.0,0 STARLINK-5833,1 55773U 23028AJ  23235.52509818 -.00000220  00000-0 -10679-4 0  9998,2 55773  70.0003  47.1910 0002947 270.3632  89.7189 14.98329132 27357,6950.196,96.107,574.109,570.012,0.0
55773.0,STARLINK-5833,PAYLOAD,2023-08-24 22:14:57,14.98331453,0.0002828,70.001,43.6564,264.2279,95.8558,-4.8674e-06,-1.51e-06,0.0,0 STARLINK-5833,1 55773U 23028AJ  23236.92705560 -.00000151  00000-0 -48674-5 0  9995,2 55773  70.0010  43.6564 0002828 264.2279  95.8558 14.98331453 27568,6950.188,96.107,574.019,570.088,0.0
55773.0,STARLINK-5833,PAYLOAD,2023-08-25 12:40:10,14.98329314,0.0002885,70.001,42.1415,265.0029,95.0801,1.359e-05,6.9e-07,0.0,0 STARLINK-5833,1 55773U 23028AJ  23237.52789598  .00000069  00000-0  13590-4 0  9999,2 55773  70.0010  42.1415 0002885 265.0029  95.0801 14.98329314 27658,6950.195,96.107,574.065,570.055,0.0
55773.0,STARLINK-5833,PAYLOAD,2023-08-25 20:40:50,14.98329804,0.0002882,70.0008,41.2998,265.3972,94.6858,1.7801e-05,1.19e-06,0.0,0 STARLINK-5833,1 55773U 23028AJ  23237.86169556  .00000119  00000-0  17801-4 0  9997,2 55773  70.0008  41.2998 0002882 265.3972  94.6858 14.98329804 27705,6950.193,96.107,574.062,570.055,0.0
55773.0,STARLINK-5833,PAYLOAD,2023-08-26 11:06:03,14.98329804,0.0002796,70.0009,39.7839,266.3917,93.6923,-1.4257e-05,-2.63e-06,0.0,0 STARLINK-5833,1 55773U 23028AJ  23238.46253676 -.00000263  00000-0 -14257-4 0  9995,2 55773  70.0009  39.7839 0002796 266.3917  93.6923 14.98329804 27797,6950.193,96.107,574.002,570.115,0.0
55773.0,STARLINK-5833,PAYLOAD,2023-08-26 20:42:51,14.98328106,0.0002862,70.0008,38.7743,266.3439,93.7393,-1.9018e-05,-3.2e-06,0.0,0 STARLINK-5833,1 55773U 23028AJ  23238.86309791 -.00000320  00000-0 -19018-4 0  9993,2 55773  70.0008  38.7743 0002862 266.3439  93.7393 14.98328106 27855,6950.199,96.107,574.053,570.075,0.0
55773.0,STARLINK-5833,PAYLOAD,2023-08-27 09:31:55,14.9833128,0.0002928,70.0007,37.4273,267.0305,93.0519,2.1576e-05,1.64e-06,0.0,0 STARLINK-5833,1 55773U 23028AJ  23239.39717453  .00000164  00000-0  21576-4 0  9996,2 55773  70.0007  37.4273 0002928 267.0305  93.0519 14.98331280 27930,6950.189,96.107,574.089,570.019,0.0
55773.0,STARLINK-5833,PAYLOAD,2023-08-27 17:32:36,14.98332056,0.0002939,70.0008,36.586,267.8251,92.2572,1.8572e-05,1.29e-06,0.0,0 STARLINK-5833,1 55773U 23028AJ  23239.73097377  .00000129  00000-0  18572-4 0  9993,2 55773  70.0008  36.5860 0002939 267.8251  92.2572 14.98332056 27980,6950.187,96.107,574.094,570.009,0.0
55773.0,STARLINK-5833,PAYLOAD,2023-08-27 20:44:52,14.98333354,0.0002927,70.0009,36.2494,268.061,92.0214,3.2799e-05,2.98e-06,0.0,0 STARLINK-5833,1 55773U 23028AJ  23239.86449231  .00000298  00000-0  32799-4 0  9991,2 55773  70.0009  36.2494 0002927 268.0610  92.0214 14.98333354 28007,6950.183,96.107,574.082,570.013,0.0
55773.0,STARLINK-5833,PAYLOAD,2023-08-28 15:58:29,14.98326449,0.0002869,70.001,34.2298,265.7571,94.326,-1.6151e-06,-1.12e-06,0.0,0 STARLINK-5833,1 55773U 23028AJ  23240.66561744 -.00000112  00000-0 -16151-5 0  9997,2 55773  70.0010  34.2298 0002869 265.7571  94.3260 14.98326449 28120,6950.204,96.107,574.063,570.075,0.0
55773.0,STARLINK-5833,PAYLOAD,2023-08-28 20:46:53,14.98328366,0.0002841,70.0011,33.7248,265.3085,94.775,1.9611e-05,1.41e-06,0.0,0 STARLINK-5833,1 55773U 23028AJ  23240.86589579  .00000141  00000-0  19611-4 0  9998,2 55773  70.0011  33.7248 0002841 265.3085  94.7750 14.98328366 28157,6950.198,96.107,574.037,570.088,0.0
55773.0,STARLINK-5833,PAYLOAD,2023-08-29 17:36:38,14.98330282,0.0002837,70.0012,31.5363,269.7062,90.3772,-2.2455e-05,-3.61e-06,0.0,0 STARLINK-5833,1 55773U 23028AJ  23241.73377558 -.00000361  00000-0 -22455-4 0  9993,2 55773  70.0012  31.5363 0002837 269.7062  90.3772 14.98330282 28280,6950.192,96.107,574.029,570.085,0.0
55773.0,STARLINK-5833,PAYLOAD,2023-08-29 19:12:46,14.98331091,0.0002823,70.0013,31.3684,265.4561,94.6276,-1.3489e-05,-2.54e-06,0.0,0 STARLINK-5833,1 55773U 23028AJ  23241.80053450 -.00000254  00000-0 -13489-4 0  9991,2 55773  70.0013  31.3684 0002823 265.4561  94.6276 14.98331091 28293,6950.19,96.107,574.017,570.092,0.0
55773.0,STARLINK-5833,PAYLOAD,2023-08-30 16:02:30,14.98333182,0.0003016,70.0011,29.1806,270.7177,89.3637,-6.1123e-05,-8.22e-06,0.0,0 STARLINK-5833,1 55773U 23028AJ  23242.66841419 -.00000822  00000-0 -61123-4 0  9995,2 55773  70.0011  29.1806 0003016 270.7177  89.3637 14.98333182 28429,6950.183,96.107,574.144,569.952,0.0
55773.0,STARLINK-5833,PAYLOAD,2023-08-30 22:27:03,14.98331955,0.000294,70.001,28.5071,268.8396,91.2426,3.6543e-05,3.43e-06,0.0,0 STARLINK-5833,1 55773U 23028AJ  23242.93545181  .00000343  00000-0  36543-4 0  9996,2 55773  70.0010  28.5071 0002940 268.8396  91.2426 14.98331955 28469,6950.187,96.107,574.095,570.008,0.0
